{
  "type": "FeatureCollection",
  "_commentaire": "Zones de Mouillages et d'Equipements Legers. Aucune couche nationale consolidee n'a ete identifiee : les ZMEL sont creees par arrete prefectoral. Ce fichier est a completer territoire par territoire avec les DDTM. L'exemple ci-dessous est fictif et doit etre supprime.",
  "features": [
    {
      "type": "Feature",
      "properties": {
        "nom": "EXEMPLE FICTIF - ZMEL a remplacer",
        "commune": "",
        "arrete": "",
        "nb_postes": 24,
        "gestionnaire": "Association des usagers de la ZMEL (fictif)",
        "mailto": "contact@zmel-exemple.fr"
      },
      "geometry": {
        "type": "Polygon",
        "coordinates": [
          [
            [
              6.13,
              43.043
            ],
            [
              6.146,
              43.043
            ],
            [
              6.146,
              43.052
            ],
            [
              6.13,
              43.052
            ],
            [
              6.13,
              43.043
            ]
          ]
        ]
      }
    }
  ]
}